ORBCOMM FM20            
1 25416U 98046D   25022.46746978  .00003017  00000+0  10629-2 0  9997
2 25416  44.9923 151.0993 0002096 221.8985 138.1702 14.36643616383300
ORBCOMM FM15            
1 25418U 98046F   25022.42901223  .00003529  00000+0  12070-2 0  9991
2 25418  44.9951 149.3831 0004822 261.3259  98.7043 14.37792590383267
ORBCOMM FM14            
1 25419U 98046G   25022.48099260  .00003618  00000+0  12288-2 0  9997
2 25419  44.9941 147.7647 0004139 249.4039 110.6366 14.38096930383233
ORBCOMM FM13            
1 25420U 98046H   25022.47581983  .00003623  00000+0  12573-2 0  9999
2 25420  44.9953 154.4289 0005989 250.3680 109.6521 14.37015509382278
ORBCOMM FM21            
1 25475U 98053A   25022.03557767  .00002006  00000+0  72083-3 0  9999
2 25475  45.0065 241.3521 0000966 174.1928 185.8931 14.36783575376220
ORBCOMM FM22            
1 25476U 98053B   25021.96218705  .00002717  00000+0  94317-3 0  9990
2 25476  45.0056 237.6442 0002872 190.7574 169.3213 14.37643836376226
ORBCOMM FM23            
1 25477U 98053C   25022.46917607  .00002216  00000+0  78944-3 0  9996
2 25477  45.0064 241.5971 0001953 188.4809 171.6006 14.36904320376437
